{
  "type": "FeatureCollection",
  "features": [
    {
      "type": "Feature",
      "properties": {
        "name": "ratan tata bhavan"
      },
      "geometry": {
        "coordinates": [
          82.06631557893746,
          17.088309573926367
        ],
        "type": "Point"
      },
      "id": 0
    },
    {
      "type": "Feature",
      "properties": {
        "name ": "cotton bhavan "
      },
      "geometry": {
        "coordinates": [
          82.06692714917483,
          17.088069663032286
        ],
        "type": "Point"
      },
      "id": 1
    },
    {
      "type": "Feature",
      "properties": {
        "name": "KL roa bhavan "
      },
      "geometry": {
        "coordinates": [
          82.06688851962588,
          17.089070833324698
        ],
        "type": "Point"
      },
      "id": 2
    },
    {
      "type": "Feature",
      "properties": {
        "name ": "BillGates bhavan"
      },
      "geometry": {
        "coordinates": [
          82.06681781770953,
          17.08970223577724
        ],
        "type": "Point"
      },
      "id": 3
    },
    {
      "type": "Feature",
      "properties": {
        "name": "Visweswara bhavan"
      },
      "geometry": {
        "coordinates": [
          82.06679108023951,
          17.09070660955841
        ],
        "type": "Point"
      },
      "id": 4
    },
    {
      "type": "Feature",
      "properties": {
        "name": "Bhaskar Bhavan"
      },
      "geometry": {
        "coordinates": [
          82.06636333438018,
          17.09103099105424
        ],
        "type": "Point"
      },
      "id": 5
    },
    {
      "type": "Feature",
      "properties": {
        "name": "CV raman bhavan"
      },
      "geometry": {
        "coordinates": [
          82.06691834320878,
          17.091666237301382
        ],
        "type": "Point"
      },
      "id": 6
    },
    {
      "type": "Feature",
      "properties": {
        "name": "ramanujan bhavan"
      },
      "geometry": {
        "coordinates": [
          82.06667348531232,
          17.093049684934314
        ],
        "type": "Point"
      },
      "id": 7
    },
    {
      "type": "Feature",
      "properties": {
        "name": "james watt bhavan"
      },
      "geometry": {
        "coordinates": [
          82.0661856431579,
          17.09304630599587
        ],
        "type": "Point"
      },
      "id": 8
    },
    {
      "type": "Feature",
      "properties": {
        "name": "newton bhavan"
      },
      "geometry": {
        "coordinates": [
          82.06673358180899,
          17.09361734574651
        ],
        "type": "Point"
      },
      "id": 9
    },
    {
      "type": "Feature",
      "properties": {
        "name": "Technical Hub"
      },
      "geometry": {
        "coordinates": [
          82.06870329654481,
          17.087795914175985
        ],
        "type": "Point"
      },
      "id": 10
    },
    {
      "type": "Feature",
      "properties": {
        "name": "abdul kalam bhavan "
      },
      "geometry": {
        "coordinates": [
          82.07066299370956,
          17.08983066463439
        ],
        "type": "Point"
      },
      "id": 12
    },
    {
      "type": "Feature",
      "properties": {
        "name": "Einstein Bhavan"
      },
      "geometry": {
        "coordinates": [
          82.0722737207364,
          17.088866381882312
        ],
        "type": "Point"
      },
      "id": 12
    },
    {
      "type": "Feature",
      "properties": {
        "name": "Pencil canteen"
      },
      "geometry": {
        "coordinates": [
          82.0712394621533,
          17.088866381882312
        ],
        "type": "Point"
      },
      "id": 13
    },
    {
      "type": "Feature",
      "properties": {
        "name": "aparna canteen"
      },
      "geometry": {
        "coordinates": [
          82.07113349303614,
          17.089644292027074
        ],
        "type": "Point"
      },
      "id": 15
    },
    {
      "type": "Feature",
      "properties": {
        "name": "school of business"
      },
      "geometry": {
        "coordinates": [
          82.07154465321145,
          17.08968075648599
        ],
        "type": "Point"
      },
      "id": 16
    },
    {
      "type": "Feature",
      "properties": {
        "name": "staff quarters "
      },
      "geometry": {
        "coordinates": [
          82.07062433617182,
          17.088557976767078
        ],
        "type": "Point"
      },
      "id": 18
    },
    {
      "type": "Feature",
      "properties": {
        "name": "emblem"
      },
      "geometry": {
        "coordinates": [
          82.0687094190003,
          17.08856011588466
        ],
        "type": "Point"
      },
      "id": 17
    },
    {
      "type": "Feature",
      "properties": {
        "name": "flag"
      },
      "geometry": {
        "coordinates": [
          82.06915025052734,
          17.089398801500664
        ],
        "type": "Point"
      },
      "id": 18
    },
    {
      "type": "Feature",
      "properties": {
        "name ": "tree circle"
      },
      "geometry": {
        "coordinates": [
          82.06972244185988,
          17.090338694322597
        ],
        "type": "Point"
      },
      "id": 19
    },
    {
      "type": "Feature",
      "properties": {
        "name": "saraswati temple"
      },
      "geometry": {
        "coordinates": [
          82.06959951768448,
          17.09059394443041
        ],
        "type": "Point"
      },
      "id": 24
    },
    {
      "type": "Feature",
      "properties": {
        "name": "mosque"
      },
      "geometry": {
        "coordinates": [
          82.06959104015539,
          17.090808678376845
        ],
        "type": "Point"
      },
      "id": 25
    },
    {
      "type": "Feature",
      "properties": {
        "name": "sai baba temple"
      },
      "geometry": {
        "coordinates": [
          82.06959104015539,
          17.09102341207587
        ],
        "type": "Point"
      },
      "id": 26
    },
    {
      "type": "Feature",
      "properties": {
        "name ": "church"
      },
      "geometry": {
        "coordinates": [
          82.06959104015539,
          17.091201681374244
        ],
        "type": "Point"
      },
      "id": 27
    },
    {
      "type": "Feature",
      "properties": {
        "name ": "boys hostel"
      },
      "geometry": {
        "coordinates": [
          82.06924111594986,
          17.09155498536896
        ],
        "type": "Point"
      },
      "id": 28
    },
    {
      "type": "Feature",
      "properties": {
        "name": "Ball Canteen1"
      },
      "geometry": {
        "coordinates": [
          82.0675028202512,
          17.090080922541787
        ],
        "type": "Point"
      },
      "id": 29
    },
    {
      "type": "Feature",
      "properties": {
        "name": "Ball Canteen2"
      },
      "geometry": {
        "coordinates": [
          82.0675028202512,
          17.08941645938603
        ],
        "type": "Point"
      },
      "id": 30
    },
    {
      "type": "Feature",
      "properties": {
        "name": "Gallery"
      },
      "geometry": {
        "coordinates": [
          82.06762150566396,
          17.0898499813475
        ],
        "type": "Point"
      },
      "id": 31
    },
    {
      "type": "Feature",
      "properties": {
        "name": "KL ROA Ground"
      },
      "geometry": {
        "coordinates": [
          82.0682101917597,
          17.08906990222667
        ],
        "type": "Point"
      },
      "id": 32
    },
    {
      "type": "Feature",
      "properties": {
        "name": "Technical Hub Garden"
      },
      "geometry": {
        "coordinates": [
          82.06781537881028,
          17.088080306405303
        ],
        "type": "Point"
      },
      "id": 33
    },
    {
      "type": "Feature",
      "properties": {
        "name": "Mango Garden"
      },
      "geometry": {
        "coordinates": [
          82.06843563784338,
          17.090960936513426
        ],
        "type": "Point"
      },
      "id": 30
    },
    {
      "type": "Feature",
      "properties": {
        "name": "girls hostel g block"
      },
      "geometry": {
        "coordinates": [
          82.07021116439114,
          17.092354457114396
        ],
        "type": "Point"
      },
      "id": 36
    },
    {
      "type": "Feature",
      "properties": {
        "name": "girls hostel h block"
      },
      "geometry": {
        "coordinates": [
          82.07059265321277,
          17.092350405566492
        ],
        "type": "Point"
      },
      "id": 32
    },
    {
      "type": "Feature",
      "properties": {
        "name": "Bus ground"
      },
      "geometry": {
        "coordinates": [
          82.07052059427127,
          17.091166871510268
        ],
        "type": "Point"
      },
      "id": 37
    },
    {
      "type": "Feature",
      "properties": {
        "name": "BPD ground"
      },
      "geometry": {
        "coordinates": [
          82.07186974437963,
          17.091104255697346
        ],
        "type": "Point"
      },
      "id": 34
    },
    {
      "type": "Feature",
      "properties": {
        "name ": "polavaram project model"
      },
      "geometry": {
        "coordinates": [
          82.06738440593364,
          17.09307546800875
        ],
        "type": "Point"
      },
      "id": 39
    },
    {
      "type": "Feature",
      "properties": {
        "name": "ground"
      },
      "geometry": {
        "coordinates": [
          82.0676932175254,
          17.09218259961024
        ],
        "type": "Point"
      },
      "id": 40
    },
    {
      "type": "Feature",
      "properties": {
        "name": "kakinada Bus ground"
      },
      "geometry": {
        "coordinates": [
          82.06847294774877,
          17.089819999474173
        ],
        "type": "Point"
      },
      "id": 53
    },
    {
      "type": "Feature",
      "properties": {
        "name": "Main Gate"
      },
      "geometry": {
        "coordinates": [
          82.0681227989079,
          17.087457910347098
        ],
        "type": "Point"
      },
      "id": 38
    },
    {
      "type": "Feature",
      "properties": {
        "name": "ATM"
      },
      "geometry": {
        "coordinates": [
          82.0689910629514,
          17.08763839407061
        ],
        "type": "Point"
      },
      "id": 39
    },
    {
      "type": "Feature",
      "properties": {
        "name": "edison bhavan"
      },
      "geometry": {
        "coordinates": [
          82.07087642075493,
          17.090170745421958
        ],
        "type": "Point"
      },
      "id": 57
    },
    {
      "type": "Feature",
      "properties": {
        "name": "Girls hostel"
      },
      "geometry": {
        "coordinates": [
          82.07027667760809,
          17.088230571603106
        ],
        "type": "Point"
      },
      "id": 41
    },
    {
      "type": "Feature",
      "properties": {
        "name": "Polytechnic college "
      },
      "geometry": {
        "coordinates": [
          82.07170419612169,
          17.088842223789527
        ],
        "type": "Point"
      },
      "id": 57
    },
    {
      "type": "Feature",
      "properties": {
        "name ": "Pharmacy college"
      },
      "geometry": {
        "coordinates": [
          82.07065400810518,
          17.08906241813584
        ],
        "type": "Point"
      },
      "id": 57
    },
    {
      "type": "Feature",
      "properties": {},
      "geometry": {
        "coordinates": [
          [
            82.06809037263542,
            17.0874472789302
          ],
          [
            82.0683474674666,
            17.087884160196793
          ],
          [
            82.0686807385448,
            17.08850307357227
          ]
        ],
        "type": "LineString"
      }
    },
    {
      "type": "Feature",
      "properties": {},
      "geometry": {
        "coordinates": [
          [
            82.07016576544976,
            17.088549903740372
          ],
          [
            82.07020385357379,
            17.08821314239023
          ],
          [
            82.07018480951177,
            17.08767614330415
          ],
          [
            82.06815661695026,
            17.087485007662238
          ]
        ],
        "type": "LineString"
      }
    },
    {
      "type": "Feature",
      "properties": {},
      "geometry": {
        "coordinates": [
          [
            82.07017529273821,
            17.088558004707664
          ],
          [
            82.07019433680023,
            17.08874003760809
          ],
          [
            82.07022290289268,
            17.08919511908242
          ],
          [
            82.07021338086224,
            17.089431761009592
          ]
        ],
        "type": "LineString"
      }
    },
    {
      "type": "Feature",
      "properties": {},
      "geometry": {
        "coordinates": [
          [
            82.07021249797992,
            17.08944238058224
          ],
          [
            82.07022202001036,
            17.08989746034149
          ],
          [
            82.07021249797992,
            17.09027062491478
          ],
          [
            82.06972687440884,
            17.090352538988483
          ]
        ],
        "type": "LineString"
      }
    },
    {
      "type": "Feature",
      "properties": {},
      "geometry": {
        "coordinates": [
          [
            82.07021250032409,
            17.089424177095665
          ],
          [
            82.06967926659854,
            17.089396872272033
          ],
          [
            82.06913651084369,
            17.08941507548755
          ]
        ],
        "type": "LineString"
      }
    },
    {
      "type": "Feature",
      "properties": {},
      "geometry": {
        "coordinates": [
          [
            82.06870879580327,
            17.08854124413513
          ],
          [
            82.0698228734077,
            17.088532142484866
          ],
          [
            82.07019423260886,
            17.088532142484866
          ]
        ],
        "type": "LineString"
      }
    },
    {
      "type": "Feature",
      "properties": {},
      "geometry": {
        "coordinates": [
          [
            82.0686885525322,
            17.088535852441183
          ],
          [
            82.0689266033014,
            17.088972731156105
          ],
          [
            82.06911704391825,
            17.089373202412105
          ]
        ],
        "type": "LineString"
      },
      "id": 50
    },
    {
      "type": "Feature",
      "properties": {},
      "geometry": {
        "coordinates": [
          [
            82.06912656594875,
            17.089409608846992
          ],
          [
            82.0694503149964,
            17.08991019660847
          ],
          [
            82.06968836576561,
            17.09031066584994
          ]
        ],
        "type": "LineString"
      },
      "id": 51
    },
    {
      "type": "Feature",
      "properties": {},
      "geometry": {
        "coordinates": [
          [
            82.06865307260557,
            17.088511144376028
          ],
          [
            82.06831975424438,
            17.088511144376028
          ],
          [
            82.06734920960565,
            17.088483032343817
          ],
          [
            82.06696687383908,
            17.088454920307356
          ],
          [
            82.06653552066723,
            17.08840806690344
          ]
        ],
        "type": "LineString"
      }
    },
    {
      "type": "Feature",
      "properties": {},
      "geometry": {
        "coordinates": [
          [
            82.0673394061248,
            17.08850177369945
          ],
          [
            82.06730019220026,
            17.08919520251851
          ],
          [
            82.06730019220026,
            17.089307650191216
          ]
        ],
        "type": "LineString"
      }
    },
    {
      "type": "Feature",
      "properties": {},
      "geometry": {
        "coordinates": [
          [
            82.06730999568111,
            17.08931702082836
          ],
          [
            82.06894717704114,
            17.089391985902026
          ],
          [
            82.06911383622224,
            17.089391985902026
          ]
        ],
        "type": "LineString"
      }
    },
    {
      "type": "Feature",
      "properties": {},
      "geometry": {
        "coordinates": [
          [
            82.06730019422645,
            17.089317931397886
          ],
          [
            82.06728058726475,
            17.089608420891366
          ],
          [
            82.06726098030197,
            17.089898909931023
          ],
          [
            82.06726098030197,
            17.09023625147502
          ]
        ],
        "type": "LineString"
      }
    },
    {
      "type": "Feature",
      "properties": {},
      "geometry": {
        "coordinates": [
          [
            82.06724137367775,
            17.090226880088565
          ],
          [
            82.06653552303203,
            17.09020813890639
          ]
        ],
        "type": "LineString"
      }
    },
    {
      "type": "Feature",
      "properties": {},
      "geometry": {
        "coordinates": [
          [
            82.06728058760228,
            17.090245621267755
          ],
          [
            82.06820211483563,
            17.090273733034138
          ],
          [
            82.06970204745812,
            17.090311215382286
          ]
        ],
        "type": "LineString"
      }
    },
    {
      "type": "Feature",
      "properties": {},
      "geometry": {
        "coordinates": [
          [
            82.06972738409678,
            17.090330965070066
          ],
          [
            82.06975211214854,
            17.090638234463853
          ],
          [
            82.06975829416149,
            17.090868686176208
          ],
          [
            82.06976447617438,
            17.091075501572917
          ],
          [
            82.06977684020171,
            17.09130595274455
          ],
          [
            82.06977684020171,
            17.091447768708193
          ]
        ],
        "type": "LineString"
      }
    },
    {
      "type": "Feature",
      "properties": {},
      "geometry": {
        "coordinates": [
          [
            82.06978920422756,
            17.091459586700594
          ],
          [
            82.07049395372746,
            17.09145367770485
          ],
          [
            82.07047540768724,
            17.092280935317007
          ]
        ],
        "type": "LineString"
      }
    },
    {
      "type": "Feature",
      "properties": {},
      "geometry": {
        "coordinates": [
          [
            82.06977219521343,
            17.091457265336786
          ],
          [
            82.06927763416053,
            17.091486810313768
          ],
          [
            82.0685852486879,
            17.091451356340954
          ]
        ],
        "type": "LineString"
      }
    },
    {
      "type": "Feature",
      "properties": {},
      "geometry": {
        "coordinates": [
          [
            82.06857288466199,
            17.09146317433239
          ],
          [
            82.06851106452979,
            17.09200680114982
          ],
          [
            82.06844924439764,
            17.092633151820593
          ]
        ],
        "type": "LineString"
      }
    },
    {
      "type": "Feature",
      "properties": {},
      "geometry": {
        "coordinates": [
          [
            82.06858093376076,
            17.091469010572624
          ],
          [
            82.06734400244306,
            17.09134345607481
          ]
        ],
        "type": "LineString"
      }
    },
    {
      "type": "Feature",
      "properties": {},
      "geometry": {
        "coordinates": [
          [
            82.06734498025509,
            17.09134224811193
          ],
          [
            82.0673103778633,
            17.09169188997754
          ],
          [
            82.06726588907424,
            17.09229194948746
          ],
          [
            82.06724611715947,
            17.093071549518342
          ],
          [
            82.06723128756238,
            17.093298342211057
          ]
        ],
        "type": "LineString"
      }
    },
    {
      "type": "Feature",
      "properties": {},
      "geometry": {
        "coordinates": [
          [
            82.06736913891837,
            17.090265256902086
          ],
          [
            82.06734300096429,
            17.09082739107653
          ],
          [
            82.06732993198801,
            17.091320818565066
          ]
        ],
        "type": "LineString"
      }
    },
    {
      "type": "Feature",
      "properties": {},
      "geometry": {
        "coordinates": [
          [
            82.06649025023353,
            17.09123649877003
          ],
          [
            82.06733973371996,
            17.091333310383135
          ]
        ],
        "type": "LineString"
      }
    },
    {
      "type": "Feature",
      "properties": {},
      "geometry": {
        "coordinates": [
          [
            82.07021781024974,
            17.090277124988347
          ],
          [
            82.07147133948547,
            17.090277124988347
          ]
        ],
        "type": "LineString"
      }
    },
    {
      "type": "Feature",
      "properties": {},
      "geometry": {
        "coordinates": [
          [
            82.07020649185387,
            17.089433492313958
          ],
          [
            82.07114428252328,
            17.08940196119451
          ],
          [
            82.07168150933751,
            17.08940196119451
          ],
          [
            82.07227999885981,
            17.089374934516286
          ],
          [
            82.07246378698068,
            17.08937943896275
          ]
        ],
        "type": "LineString"
      },
      "id": 67
    },
    {
      "type": "Feature",
      "properties": {},
      "geometry": {
        "coordinates": [
          [
            82.07124830088281,
            17.089400456485663
          ],
          [
            82.07124830088281,
            17.08886284318733
          ]
        ],
        "type": "LineString"
      }
    },
    {
      "type": "Feature",
      "properties": {},
      "geometry": {
        "coordinates": [
          [
            82.06824287398945,
            17.087723820329515
          ],
          [
            82.06896947590428,
            17.08764130227577
          ]
        ],
        "type": "LineString"
      }
    },
    {
      "type": "Feature",
      "properties": {},
      "geometry": {
        "coordinates": [
          [
            82.06696008142615,
            17.088450306610554
          ],
          [
            82.06694031185788,
            17.088091267325495
          ]
        ],
        "type": "LineString"
      }
    },
    {
      "type": "Feature",
      "properties": {},
      "geometry": {
        "coordinates": [
          [
            82.06920050434474,
            17.09148957261229
          ],
          [
            82.06856787817361,
            17.091480124373362
          ]
        ],
        "type": "LineString"
      }
    },
    {
      "type": "Feature",
      "properties": {},
      "geometry": {
        "coordinates": [
          [
            82.06858764774069,
            17.091470676132843
          ],
          [
            82.06844926076622,
            17.09098881526964
          ]
        ],
        "type": "LineString"
      }
    }
  ]
}